start=new Date('2022-04-13T00:00:00.000Z').valueOf();
sats=[{"RA_OF_ASC_NODE":"102.4600","MEAN_MOTION_DOT":"-0.00000497","REF_FRAME":"TEME","NORAD_CAT_ID":"46546","ELEMENT_SET_NO":"999","COUNTRY_CODE":"US","BSTAR":"-0.00001446300000","INCLINATION":"53.0544","MEAN_ANOMALY":"313.2382","GP_ID":"201093703","RCS_SIZE":"LARGE","TLE_LINE2":"2 46546  53.0544 102.4600 0001986  46.8772 313.2382 15.06391249 84429","LAUNCH_DATE":"2020-10-06","OBJECT_NAME":"STARLINK-1697","EPOCH":"2022-04-12T17:38:26.361312","MEAN_MOTION":"15.06391249","ARG_OF_PERICENTER":"46.8772","APOAPSIS":"548.616","SEMIMAJOR_AXIS":"6925.375","REV_AT_EPOCH":"8442","MEAN_ELEMENT_THEORY":"SGP4","SITE":"AFETR","EPHEMERIS_TYPE":"0","MEAN_MOTION_DDOT":"0.0000000000000","CENTER_NAME":"EARTH","ECCENTRICITY":"0.00019860","TIME_SYSTEM":"UTC","CLASSIFICATION_TYPE":"U","DECAY_DATE":null,"TLE_LINE1":"1 46546U 20070Q   22102.73502733 -.00000497  00000-0 -14463-4 0  9995","PERIAPSIS":"545.865","OBJECT_ID":"2020-070Q","PERIOD":"95.593","OBJECT_TYPE":"PAYLOAD","FILE":"3398892"},{"TLE_LINE1":"1 46547U 20070R   22102.69816980  .00001185  00000-0  98451-4 0  9995","DECAY_DATE":null,"OBJECT_ID":"2020-070R","PERIAPSIS":"545.935","FILE":"3398892","PERIOD":"95.593","OBJECT_TYPE":"PAYLOAD","MEAN_MOTION_DDOT":"0.0000000000000","REV_AT_EPOCH":"8442","SEMIMAJOR_AXIS":"6925.374","APOAPSIS":"548.543","MEAN_ELEMENT_THEORY":"SGP4","SITE":"AFETR","EPHEMERIS_TYPE":"0","CLASSIFICATION_TYPE":"U","ECCENTRICITY":"0.00018830","CENTER_NAME":"EARTH","TIME_SYSTEM":"UTC","TLE_LINE2":"2 46547  53.0534 102.6290 0001883  56.6493 303.4676 15.06391751 84426","OBJECT_NAME":"STARLINK-1698","LAUNCH_DATE":"2020-10-06","GP_ID":"201092451","RCS_SIZE":"LARGE","MEAN_MOTION":"15.06391751","ARG_OF_PERICENTER":"56.6493","EPOCH":"2022-04-12T16:45:21.870720","REF_FRAME":"TEME","NORAD_CAT_ID":"46547","ELEMENT_SET_NO":"999","RA_OF_ASC_NODE":"102.6290","MEAN_MOTION_DOT":"0.00001185","BSTAR":"0.00009845100000","MEAN_ANOMALY":"303.4676","INCLINATION":"53.0534","COUNTRY_CODE":"US"},{"MEAN_MOTION_DDOT":"0.0000000000000","SITE":"AFETR","MEAN_ELEMENT_THEORY":"SGP4","EPHEMERIS_TYPE":"0","APOAPSIS":"548.401","REV_AT_EPOCH":"8442","SEMIMAJOR_AXIS":"6925.360","CLASSIFICATION_TYPE":"U","TIME_SYSTEM":"UTC","CENTER_NAME":"EARTH","ECCENTRICITY":"0.00016970","DECAY_DATE":null,"TLE_LINE1":"1 46548U 20070S   22102.70922152  .00002208  00000-0  16712-3 0  9993","PERIAPSIS":"546.050","OBJECT_ID":"2020-070S","FILE":"3398892","OBJECT_TYPE":"PAYLOAD","PERIOD":"95.592","ELEMENT_SET_NO":"999","NORAD_CAT_ID":"46548","REF_FRAME":"TEME","MEAN_MOTION_DOT":"0.00002208","RA_OF_ASC_NODE":"102.5851","INCLINATION":"53.0529","MEAN_ANOMALY":"298.9831","BSTAR":"0.00016712000000","COUNTRY_CODE":"US","LAUNCH_DATE":"2020-10-06","OBJECT_NAME":"STARLINK-1699","TLE_LINE2":"2 46548  53.0529 102.5851 0001697  61.1328 298.9831 15.06396142 84424","RCS_SIZE":"LARGE","GP_ID":"201092201","ARG_OF_PERICENTER":"61.1328","MEAN_MOTION":"15.06396142","EPOCH":"2022-04-12T17:01:16.739328"},{"OBJECT_TYPE":"PAYLOAD","PERIOD":"95.592","FILE":"3398537","DECAY_DATE":null,"TLE_LINE1":"1 46549U 20070T   22102.40697443 -.00000654  00000-0 -25000-4 0  9999","PERIAPSIS":"546.114","OBJECT_ID":"2020-070T","TIME_SYSTEM":"UTC","ECCENTRICITY":"0.00016080","CENTER_NAME":"EARTH","CLASSIFICATION_TYPE":"U","EPHEMERIS_TYPE":"0","SITE":"AFETR","MEAN_ELEMENT_THEORY":"SGP4","REV_AT_EPOCH":"8437","SEMIMAJOR_AXIS":"6925.362","APOAPSIS":"548.341","MEAN_MOTION_DDOT":"0.0000000000000","EPOCH":"2022-04-12T09:46:02.590752","ARG_OF_PERICENTER":"59.2838","MEAN_MOTION":"15.06395572","RCS_SIZE":"LARGE","GP_ID":"201060269","OBJECT_NAME":"STARLINK-1700","LAUNCH_DATE":"2020-10-06","TLE_LINE2":"2 46549  53.0555 103.9286 0001608  59.2838 300.8309 15.06395572 84370","COUNTRY_CODE":"US","MEAN_ANOMALY":"300.8309","INCLINATION":"53.0555","BSTAR":"-0.00002500000000","MEAN_MOTION_DOT":"-0.00000654","RA_OF_ASC_NODE":"103.9286","NORAD_CAT_ID":"46549","ELEMENT_SET_NO":"999","REF_FRAME":"TEME"},{"ECCENTRICITY":"0.00018720","CENTER_NAME":"EARTH","TIME_SYSTEM":"UTC","CLASSIFICATION_TYPE":"U","SEMIMAJOR_AXIS":"6925.332","REV_AT_EPOCH":"8442","APOAPSIS":"548.493","EPHEMERIS_TYPE":"0","SITE":"AFETR","MEAN_ELEMENT_THEORY":"SGP4","MEAN_MOTION_DDOT":"0.0000000000000","PERIOD":"95.592","OBJECT_TYPE":"PAYLOAD","FILE":"3398892","DECAY_DATE":null,"TLE_LINE1":"1 46550U 20070U   22102.72396295  .00007460  00000-0  51910-3 0  9995","PERIAPSIS":"545.900","OBJECT_ID":"2020-070U","COUNTRY_CODE":"US","BSTAR":"0.00051910000000","MEAN_ANOMALY":"315.8476","INCLINATION":"53.0536","RA_OF_ASC_NODE":"102.5188","MEAN_MOTION_DOT":"0.00007460","REF_FRAME":"TEME","NORAD_CAT_ID":"46550","ELEMENT_SET_NO":"999","EPOCH":"2022-04-12T17:22:30.398880","MEAN_MOTION":"15.06405453","ARG_OF_PERICENTER":"44.2663","GP_ID":"201093203","RCS_SIZE":"LARGE","TLE_LINE2":"2 46550  53.0536 102.5188 0001872  44.2663 315.8476 15.06405453 84427","LAUNCH_DATE":"2020-10-06","OBJECT_NAME":"STARLINK-1701"},{"TLE_LINE2":"2 46552  53.0541  87.6897 0001668  55.1992 304.9154 15.06387402 84632","LAUNCH_DATE":"2020-10-06","OBJECT_NAME":"STARLINK-1649","GP_ID":"201091951","RCS_SIZE":"LARGE","MEAN_MOTION":"15.06387402","ARG_OF_PERICENTER":"55.1992","EPOCH":"2022-04-12T16:23:28.463712","REF_FRAME":"TEME","NORAD_CAT_ID":"46552","ELEMENT_SET_NO":"999","RA_OF_ASC_NODE":"87.6897","MEAN_MOTION_DOT":"-0.00000110","BSTAR":"0.00001152500000","INCLINATION":"53.0541","MEAN_ANOMALY":"304.9154","COUNTRY_CODE":"US","DECAY_DATE":null,"TLE_LINE1":"1 46552U 20070W   22102.68296833 -.00000110  00000-0  11525-4 0  9994","OBJECT_ID":"2020-070W","PERIAPSIS":"546.097","FILE":"3398892","PERIOD":"95.593","OBJECT_TYPE":"PAYLOAD","MEAN_MOTION_DDOT":"0.0000000000000","APOAPSIS":"548.407","REV_AT_EPOCH":"8463","SEMIMAJOR_AXIS":"6925.387","SITE":"AFETR","EPHEMERIS_TYPE":"0","MEAN_ELEMENT_THEORY":"SGP4","CLASSIFICATION_TYPE":"U","CENTER_NAME":"EARTH","ECCENTRICITY":"0.00016680","TIME_SYSTEM":"UTC"},{"TIME_SYSTEM":"UTC","CENTER_NAME":"EARTH","ECCENTRICITY":"0.00016580","CLASSIFICATION_TYPE":"U","MEAN_ELEMENT_THEORY":"SGP4","SITE":"AFETR","EPHEMERIS_TYPE":"0","APOAPSIS":"548.386","SEMIMAJOR_AXIS":"6925.372","REV_AT_EPOCH":"8487","MEAN_MOTION_DDOT":"0.0000000000000","OBJECT_TYPE":"PAYLOAD","PERIOD":"95.593","FILE":"3398892","DECAY_DATE":null,"TLE_LINE1":"1 46553U 20070X   22102.91007874 -.00000890  00000-0 -40867-4 0  9993","OBJECT_ID":"2020-070X","PERIAPSIS":"546.089","COUNTRY_CODE":"US","INCLINATION":"53.0544","MEAN_ANOMALY":"296.9589","BSTAR":"-0.00004086700000","MEAN_MOTION_DOT":"-0.00000890","RA_OF_ASC_NODE":"71.6802","ELEMENT_SET_NO":"999","NORAD_CAT_ID":"46553","REF_FRAME":"TEME","EPOCH":"2022-04-12T21:50:30.803136","ARG_OF_PERICENTER":"63.1569","MEAN_MOTION":"15.06392258","RCS_SIZE":"LARGE","GP_ID":"201092702","LAUNCH_DATE":"2020-10-06","OBJECT_NAME":"STARLINK-1664","TLE_LINE2":"2 46553  53.0544  71.6802 0001658  63.1569 296.9589 15.06392258 84876"},{"RCS_SIZE":"LARGE","GP_ID":"201059770","OBJECT_NAME":"STARLINK-1671","LAUNCH_DATE":"2020-10-06","TLE_LINE2":"2 46554  53.0533  89.1153 0001591  70.0173 290.0987 15.06383488 84582","EPOCH":"2022-04-12T08:46:59.377728","ARG_OF_PERICENTER":"70.0173","MEAN_MOTION":"15.06383488","MEAN_MOTION_DOT":"-0.00003893","RA_OF_ASC_NODE":"89.1153","NORAD_CAT_ID":"46554","ELEMENT_SET_NO":"999","REF_FRAME":"TEME","COUNTRY_CODE":"US","MEAN_ANOMALY":"290.0987","INCLINATION":"53.0533","BSTAR":"-0.00024273000000","TLE_LINE1":"1 46554U 20070Y   22102.36596502 -.00003893  00000-0 -24273-3 0  9992","DECAY_DATE":null,"PERIAPSIS":"546.162","OBJECT_ID":"2020-070Y","OBJECT_TYPE":"PAYLOAD","PERIOD":"95.593","FILE":"3398537","EPHEMERIS_TYPE":"0","SITE":"AFETR","MEAN_ELEMENT_THEORY":"SGP4","REV_AT_EPOCH":"8458","SEMIMAJOR_AXIS":"6925.399","APOAPSIS":"548.366","MEAN_MOTION_DDOT":"0.0000000000000","TIME_SYSTEM":"UTC","ECCENTRICITY":"0.00015910","CENTER_NAME":"EARTH","CLASSIFICATION_TYPE":"U"},{"EPOCH":"2022-04-12T16:34:44.637888","MEAN_MOTION":"15.06387962","ARG_OF_PERICENTER":"57.5537","GP_ID":"201093704","RCS_SIZE":"LARGE","TLE_LINE2":"2 46556  53.0522 102.6693 0001805  57.5537 302.5627 15.06387962 84428","OBJECT_NAME":"STARLINK-1676","LAUNCH_DATE":"2020-10-06","COUNTRY_CODE":"US","BSTAR":"-0.00006369000000","MEAN_ANOMALY":"302.5627","INCLINATION":"53.0522","RA_OF_ASC_NODE":"102.6693","MEAN_MOTION_DOT":"-0.00001230","REF_FRAME":"TEME","ELEMENT_SET_NO":"999","NORAD_CAT_ID":"46556","PERIOD":"95.593","OBJECT_TYPE":"PAYLOAD","FILE":"3398892","DECAY_DATE":null,"TLE_LINE1":"1 46556U 20070AA  22102.69079442 -.00001230  00000-0 -63690-4 0  9999","OBJECT_ID":"2020-070AA","PERIAPSIS":"546.000","ECCENTRICITY":"0.00018050","CENTER_NAME":"EARTH","TIME_SYSTEM":"UTC","CLASSIFICATION_TYPE":"U","REV_AT_EPOCH":"8442","SEMIMAJOR_AXIS":"6925.385","APOAPSIS":"548.500","EPHEMERIS_TYPE":"0","SITE":"AFETR","MEAN_ELEMENT_THEORY":"SGP4","MEAN_MOTION_DDOT":"0.0000000000000"},{"COUNTRY_CODE":"US","INCLINATION":"53.0545","MEAN_ANOMALY":"297.2584","BSTAR":"0.00001191500000","MEAN_MOTION_DOT":"-0.00000104","RA_OF_ASC_NODE":"87.7717","ELEMENT_SET_NO":"999","NORAD_CAT_ID":"46557","REF_FRAME":"TEME","EPOCH":"2022-04-12T16:02:13.020000","ARG_OF_PERICENTER":"62.8566","MEAN_MOTION":"15.06397393","RCS_SIZE":"LARGE","GP_ID":"201092452","LAUNCH_DATE":"2020-10-06","OBJECT_NAME":"STARLINK-1679","TLE_LINE2":"2 46557  53.0545  87.7717 0001577  62.8566 297.2584 15.06397393 84635","TIME_SYSTEM":"UTC","CENTER_NAME":"EARTH","ECCENTRICITY":"0.00015770","CLASSIFICATION_TYPE":"U","SITE":"AFETR","EPHEMERIS_TYPE":"0","MEAN_ELEMENT_THEORY":"SGP4","APOAPSIS":"548.314","REV_AT_EPOCH":"8463","SEMIMAJOR_AXIS":"6925.357","MEAN_MOTION_DDOT":"0.0000000000000","OBJECT_TYPE":"PAYLOAD","PERIOD":"95.592","FILE":"3398892","OBJECT_ID":"2020-070AB","TLE_LINE1":"1 46557U 20070AB  22102.66820625 -.00000104  00000-0  11915-4 0  9995","DECAY_DATE":null,"PERIAPSIS":"546.129"}];
